FLOCK 4G-30             
1 62679U 25009BY  26068.70871344  .00013147  00000+0  49475-3 0  9999
2 62679  97.3969 150.6012 0003795 342.4152  17.6955 15.27244548121341
STARLINK-36442          
1 67413U 26005K   26068.52091073  .00035710  00000+0  13004-2 0  9998
2 67413  43.0005 238.6778 0001096 293.6702  66.4034 15.27594216  8677
